{
  "norad_id": 67378,
  "name": "AETHER-7",
  "history": [
    {
      "epoch": "2026-03-28T22:48:26.845344Z",
      "apogee_km": 608.9975888876052,
      "perigee_km": 600.3821770793802,
      "latitude_deg": 1.1421099962434763e-05,
      "longitude_deg": -80.64406207961727,
      "height_km": 605.1124448536096,
      "semi_major_axis_km": 6982.826882983492,
      "eccentricity": 0.0006169,
      "inclination_deg": 97.8013,
      "raan_deg": 87.8312,
      "arg_perigee_deg": 52.8237,
      "mean_anomaly_deg": 307.3542,
      "mean_motion_rev_day": 14.87838694
    },
    {
      "epoch": "2026-03-29T23:01:06.494880Z",
      "apogee_km": 608.9453152634151,
      "perigee_km": 600.4148266168722,
      "latitude_deg": 1.34315321428553e-05,
      "longitude_deg": -83.81137928938794,
      "height_km": 604.9722954378988,
      "semi_major_axis_km": 6982.817070940144,
      "eccentricity": 0.00061082,
      "inclination_deg": 97.8012,
      "raan_deg": 88.8234,
      "arg_perigee_deg": 50.1371,
      "mean_anomaly_deg": 310.0382,
      "mean_motion_rev_day": 14.8784183
    },
    {
      "epoch": "2026-03-30T13:32:42.228960Z",
      "apogee_km": 608.9168860263871,
      "perigee_km": 600.4340257986951,
      "latitude_deg": 2.6077368310496703e-05,
      "longitude_deg": 58.28844169300679,
      "height_km": 604.897190616362,
      "semi_major_axis_km": 6982.812455912541,
      "eccentricity": 0.00060741,
      "inclination_deg": 97.8012,
      "raan_deg": 89.4187,
      "arg_perigee_deg": 48.606,
      "mean_anomaly_deg": 311.5678,
      "mean_motion_rev_day": 14.87843305
    },
    {
      "epoch": "2026-03-30T21:36:55.377216Z",
      "apogee_km": 608.8999869147074,
      "perigee_km": 600.4450614866146,
      "latitude_deg": 4.248215278312918e-05,
      "longitude_deg": -62.76698077627888,
      "height_km": 604.8530709000561,
      "semi_major_axis_km": 6982.809524200661,
      "eccentricity": 0.00060541,
      "inclination_deg": 97.8012,
      "raan_deg": 89.7495,
      "arg_perigee_deg": 47.6856,
      "mean_anomaly_deg": 312.4873,
      "mean_motion_rev_day": 14.87844242
    },
    {
      "epoch": "2026-03-31T16:59:02.898816Z",
      "apogee_km": 608.8647946213096,
      "perigee_km": 600.4658799700092,
      "latitude_deg": 1.4276966331840933e-05,
      "longitude_deg": 6.700137631272648,
      "height_km": 604.7534807163797,
      "semi_major_axis_km": 6982.802337295659,
      "eccentricity": 0.0006014,
      "inclination_deg": 97.8013,
      "raan_deg": 90.5434,
      "arg_perigee_deg": 45.5908,
      "mean_anomaly_deg": 314.58,
      "mean_motion_rev_day": 14.87846539
    },
    {
      "epoch": "2026-04-01T17:11:42.195840Z",
      "apogee_km": 608.8243548187247,
      "perigee_km": 600.4966705051238,
      "latitude_deg": -3.277252294326045e-05,
      "longitude_deg": 3.5344007537908775,
      "height_km": 604.6356885173504,
      "semi_major_axis_km": 6982.797512661924,
      "eccentricity": 0.0005963,
      "inclination_deg": 97.8015,
      "raan_deg": 91.5357,
      "arg_perigee_deg": 42.8608,
      "mean_anomaly_deg": 317.3072,
      "mean_motion_rev_day": 14.87848081
    },
    {
      "epoch": "2026-04-02T17:24:21.252672Z",
      "apogee_km": 608.774518979093,
      "perigee_km": 600.5278461354928,
      "latitude_deg": -4.338546005203688e-05,
      "longitude_deg": 0.3695620136378885,
      "height_km": 604.5253188442692,
      "semi_major_axis_km": 6982.788182557293,
      "eccentricity": 0.0005905,
      "inclination_deg": 97.8015,
      "raan_deg": 92.5279,
      "arg_perigee_deg": 40.1078,
      "mean_anomaly_deg": 320.0573,
      "mean_motion_rev_day": 14.87851063
    },
    {
      "epoch": "2026-04-02T22:14:52.956384Z",
      "apogee_km": 608.7553025332563,
      "perigee_km": 600.5321006678232,
      "latitude_deg": 1.204843630016084e-05,
      "longitude_deg": -72.26290381948857,
      "height_km": 604.4999280652745,
      "semi_major_axis_km": 6982.78070160054,
      "eccentricity": 0.00058882,
      "inclination_deg": 97.8015,
      "raan_deg": 92.7264,
      "arg_perigee_deg": 39.5204,
      "mean_anomaly_deg": 320.6441,
      "mean_motion_rev_day": 14.87853454
    },
    {
      "epoch": "2026-04-03T20:50:41.199360Z",
      "apogee_km": 608.6990366584914,
      "perigee_km": 600.5682984931673,
      "latitude_deg": -1.2337469803942879e-05,
      "longitude_deg": -51.21572780724131,
      "height_km": 604.4113073569123,
      "semi_major_axis_km": 6982.770667575829,
      "eccentricity": 0.0005822,
      "inclination_deg": 97.8015,
      "raan_deg": 93.6526,
      "arg_perigee_deg": 36.906,
      "mean_anomaly_deg": 323.2556,
      "mean_motion_rev_day": 14.87856661
    },
    {
      "epoch": "2026-04-04T21:03:19.893312Z",
      "apogee_km": 608.6377332341372,
      "perigee_km": 600.6215171484173,
      "latitude_deg": -4.5830249058696525e-05,
      "longitude_deg": -54.37894898968851,
      "height_km": 604.3404541069169,
      "semi_major_axis_km": 6982.766625191277,
      "eccentricity": 0.000574,
      "inclination_deg": 97.8015,
      "raan_deg": 94.6449,
      "arg_perigee_deg": 34.1218,
      "mean_anomaly_deg": 326.0366,
      "mean_motion_rev_day": 14.87857953
    },
    {
      "epoch": "2026-04-05T13:11:45.602304Z",
      "apogee_km": 608.5955065265762,
      "perigee_km": 600.6509409096434,
      "latitude_deg": 5.782852513437069e-05,
      "longitude_deg": 63.51254924119494,
      "height_km": 604.2933360680422,
      "semi_major_axis_km": 6982.76022371811,
      "eccentricity": 0.00056887,
      "inclination_deg": 97.8014,
      "raan_deg": 95.3064,
      "arg_perigee_deg": 32.2587,
      "mean_anomaly_deg": 327.8977,
      "mean_motion_rev_day": 14.87859999
    },
    {
      "epoch": "2026-04-05T18:02:17.297376Z",
      "apogee_km": 608.5801914780213,
      "perigee_km": 600.6631397029751,
      "latitude_deg": 8.440732349821092e-05,
      "longitude_deg": -9.119877063788557,
      "height_km": 604.2842371354249,
      "semi_major_axis_km": 6982.758665590498,
      "eccentricity": 0.0005669,
      "inclination_deg": 97.8015,
      "raan_deg": 95.5049,
      "arg_perigee_deg": 31.7323,
      "mean_anomaly_deg": 328.4235,
      "mean_motion_rev_day": 14.87860497
    },
    {
      "epoch": "2026-04-05T22:52:48.979488Z",
      "apogee_km": 608.5681806065841,
      "perigee_km": 600.6743120642659,
      "latitude_deg": -4.3400236371153e-05,
      "longitude_deg": -81.75232818349373,
      "height_km": 604.2725088199895,
      "semi_major_axis_km": 6982.758246335425,
      "eccentricity": 0.00056524,
      "inclination_deg": 97.8015,
      "raan_deg": 95.7033,
      "arg_perigee_deg": 31.1395,
      "mean_anomaly_deg": 329.0155,
      "mean_motion_rev_day": 14.87860631
    },
    {
      "epoch": "2026-04-07T12:00:11.766816Z",
      "apogee_km": 608.4678186644296,
      "perigee_km": 600.7546749510057,
      "latitude_deg": 1.5516088129670325e-05,
      "longitude_deg": 81.39982526541085,
      "height_km": 604.2022702902992,
      "semi_major_axis_km": 6982.748246807717,
      "eccentricity": 0.0005523,
      "inclination_deg": 97.8015,
      "raan_deg": 97.225,
      "arg_perigee_deg": 26.9016,
      "mean_anomaly_deg": 333.2486,
      "mean_motion_rev_day": 14.87863827
    },
    {
      "epoch": "2026-04-08T13:49:40.486656Z",
      "apogee_km": 608.3985582307541,
      "perigee_km": 600.8122275854039,
      "latitude_deg": -2.9273668862519936e-06,
      "longitude_deg": 54.02807807434766,
      "height_km": 604.1718840990962,
      "semi_major_axis_km": 6982.742392908079,
      "eccentricity": 0.00054322,
      "inclination_deg": 97.8015,
      "raan_deg": 98.2835,
      "arg_perigee_deg": 24.0351,
      "mean_anomaly_deg": 336.1118,
      "mean_motion_rev_day": 14.87865698
    },
    {
      "epoch": "2026-04-09T12:25:28.000416Z",
      "apogee_km": 608.3447100787216,
      "perigee_km": 600.8494433207916,
      "latitude_deg": 3.7132910241174585e-05,
      "longitude_deg": 75.07828922344738,
      "height_km": 604.1360222441388,
      "semi_major_axis_km": 6982.734076699756,
      "eccentricity": 0.0005367,
      "inclination_deg": 97.8015,
      "raan_deg": 99.2097,
      "arg_perigee_deg": 21.2725,
      "mean_anomaly_deg": 338.8714,
      "mean_motion_rev_day": 14.87868356
    },
    {
      "epoch": "2026-04-10T12:38:05.921952Z",
      "apogee_km": 608.2809089443144,
      "perigee_km": 600.9015617452014,
      "latitude_deg": 3.056578605363404e-05,
      "longitude_deg": 71.9183897685342,
      "height_km": 604.120023603969,
      "semi_major_axis_km": 6982.728235344757,
      "eccentricity": 0.0005284,
      "inclination_deg": 97.8015,
      "raan_deg": 100.2021,
      "arg_perigee_deg": 18.3061,
      "mean_anomaly_deg": 341.8345,
      "mean_motion_rev_day": 14.87870223
    },
    {
      "epoch": "2026-04-11T17:41:15.318240Z",
      "apogee_km": 608.20175511652,
      "perigee_km": 600.9704470730267,
      "latitude_deg": -6.053596597280585e-06,
      "longitude_deg": -3.8731070175234406,
      "height_km": 604.1194920900357,
      "semi_major_axis_km": 6982.7231010947735,
      "eccentricity": 0.0005178,
      "inclination_deg": 97.8014,
      "raan_deg": 101.3929,
      "arg_perigee_deg": 14.5967,
      "mean_anomaly_deg": 345.5398,
      "mean_motion_rev_day": 14.87871864
    },
    {
      "epoch": "2026-04-13T06:48:37.231200Z",
      "apogee_km": 608.0924425743697,
      "perigee_km": 601.069922897992,
      "latitude_deg": 4.971502818906866e-06,
      "longitude_deg": 159.28270941119837,
      "height_km": 604.1545726951324,
      "semi_major_axis_km": 6982.718182736181,
      "eccentricity": 0.00050285,
      "inclination_deg": 97.8014,
      "raan_deg": 102.9146,
      "arg_perigee_deg": 9.8317,
      "mean_anomaly_deg": 350.2997,
      "mean_motion_rev_day": 14.87873436
    }
  ]
}